[{"OBJECT_NAME":"STARLINK-31597","OBJECT_ID":"2024-068K","EPOCH":"2026-03-09T07:19:40.723680","MEAN_MOTION":15.27578443,"ECCENTRICITY":0.00011514,"INCLINATION":43.0054,"RA_OF_ASC_NODE":36.711,"ARG_OF_PERICENTER":266.8565,"MEAN_ANOMALY":93.2155,"EPHEMERIS_TYPE":0,"CLASSIFICATION_TYPE":"U","NORAD_CAT_ID":59464,"ELEMENT_SET_NO":999,"REV_AT_EPOCH":10841,"BSTAR":-4.08084e-7,"MEAN_MOTION_DOT":-2.73e-6,"MEAN_MOTION_DDOT":0},{"OBJECT_NAME":"YAOGAN-43 01G","OBJECT_ID":"2024-148G","EPOCH":"2026-03-09T10:38:37.087584","MEAN_MOTION":15.28332833,"ECCENTRICITY":0.00073829,"INCLINATION":35.0006,"RA_OF_ASC_NODE":62.0013,"ARG_OF_PERICENTER":306.3543,"MEAN_ANOMALY":53.6492,"EPHEMERIS_TYPE":0,"CLASSIFICATION_TYPE":"U","NORAD_CAT_ID":60464,"ELEMENT_SET_NO":999,"REV_AT_EPOCH":8700,"BSTAR":0.00035872736,"MEAN_MOTION_DOT":0.00010133,"MEAN_MOTION_DDOT":0}]
